     2.100          NAVIGATION                              RINEX VERSION / TYPE
fic2rin                                 03/28/2014 00:16:45 PGM / RUN BY / DATE
                                                            END OF HEADER
22 14  3 27 18  0  0.0  .222515314817D-03  .261479726760D-11  .000000000000D+00
     .640000000000D+02  .705625000000D+02  .567737934278D-08 -.103771554282D+01
     .385940074921D-05  .695818651002D-02  .723451375961D-05  .515372592926D+04
     .410400000000D+06  .614672899246D-07  .467571824403D+00  .169500708580D-06
     .924158349716D+00  .220687500000D+03 -.206645454717D+01 -.874893585687D-08
     .578238371663D-09  .100000000000D+01  .178500000000D+04  .000000000000D+00
     .240000000000D+01  .000000000000D+00 -.172294676304D-07  .640000000000D+02
     .403206000000D+06  .400000000000D+01
23 14  3 27 18  0  0.0 -.742170959711D-05 -.318323145621D-11  .000000000000D+00
     .890000000000D+02 -.375312500000D+02  .526914805259D-08  .306215994549D+01
    -.194087624550D-05  .903735263273D-02  .527314841747D-05  .515356744957D+04
     .410400000000D+06 -.689178705215D-07  .153073023804D+01 -.856816768646D-07
     .952059297411D+00  .277000000000D+03 -.279987807366D+01 -.840963600938D-08
    -.331442377334D-09  .100000000000D+01  .178500000000D+04  .000000000000D+00
     .240000000000D+01  .000000000000D+00 -.200234353542D-07  .890000000000D+02
     .403206000000D+06  .400000000000D+01
24 14  3 27 18  0  0.0 -.256644561887D-04 -.682121026330D-12  .000000000000D+00
     .290000000000D+02 -.206250000000D+01  .443018453497D-08  .231480889468D+01
    -.108033418655D-06  .201431591995D-02  .121295452118D-04  .515375071335D+04
     .410400000000D+06 -.614672899246D-07  .255787140376D+01  .298023223877D-07
     .957315357261D+00  .144843750000D+03  .291256298577D+00 -.794854537453D-08
    -.275011455331D-09  .100000000000D+01  .178500000000D+04  .000000000000D+00
     .240000000000D+01  .000000000000D+00  .325962901115D-08  .290000000000D+02
     .403206000000D+06  .400000000000D+01
25 14  3 27 18  0  0.0  .199880450964D-04  .125055521494D-11  .000000000000D+00
     .101000000000D+03  .825937500000D+02  .438339687179D-08  .241800604720D+00
     .434741377831D-05  .338839192409D-02  .597909092903D-05  .515363307762D+04
     .410400000000D+06  .614672899246D-07 -.267184163716D+01  .875443220139D-07
     .975948764275D+00  .268687500000D+03  .624843986757D+00 -.821391357104D-08
     .289654922433D-09  .100000000000D+01  .178500000000D+04  .000000000000D+00
     .340000000000D+01  .000000000000D+00  .558793544769D-08  .101000000000D+03
     .403206000000D+06  .400000000000D+01
26 14  3 27 18  0  0.0  .126337632537D-03 -.112549969344D-10  .000000000000D+00
     .950000000000D+02 -.502187500000D+02  .459983445871D-08  .296985137562D+01
    -.272132456303D-05  .214954639086D-01  .558979809284D-05  .515368550110D+04
     .410400000000D+06  .208616256714D-06  .161793206226D+01 -.335276126862D-06
     .975230951335D+00  .275406250000D+03  .127208954151D+01 -.791568686299D-08
    -.424660545959D-09  .100000000000D+01  .178500000000D+04  .000000000000D+00
     .240000000000D+01  .000000000000D+00 -.605359673500D-08  .950000000000D+02
     .403206000000D+06  .400000000000D+01
27 14  3 27 18  0  0.0 -.204257667065D-04  .113686837722D-12  .000000000000D+00
     .630000000000D+02 -.723437500000D+02  .472626829662D-08 -.193786894439D+01
    -.367127358913D-05  .991711160168D-03  .411085784435D-05  .515366804886D+04
     .410400000000D+06 -.558793544769D-07 -.162388317789D+01  .121071934700D-06
     .962438455413D+00  .302593750000D+03  .394043684815D-01 -.842142221461D-08
    -.270725562521D-09  .100000000000D+01  .178500000000D+04  .000000000000D+00
     .240000000000D+01  .000000000000D+00  .186264514923D-08  .630000000000D+02
     .403206000000D+06  .400000000000D+01
28 14  3 27 18  0  0.0  .342776998878D-03  .284217094304D-11  .000000000000D+00
     .500000000000D+01  .851250000000D+02  .411017120513D-08 -.125809969834D+01
     .462681055069D-05  .191699896241D-01  .656396150589D-05  .515366670990D+04
     .410400000000D+06 -.838190317154D-07 -.260575747576D+01  .480562448502D-06
     .986306423233D+00  .269187500000D+03 -.171741209939D+01 -.816676875013D-08
     .268582616115D-09  .100000000000D+01  .178500000000D+04  .000000000000D+00
     .240000000000D+01  .000000000000D+00 -.107102096081D-07  .500000000000D+01
     .403206000000D+06  .400000000000D+01
29 14  3 27 18  0  0.0  .521217938513D-03  .272848410532D-11  .000000000000D+00
     .360000000000D+02 -.724687500000D+02  .465233664564D-08  .757222153456D+00
    -.387802720070D-05  .166995136533D-02  .481493771076D-05  .515372887230D+04
     .410400000000D+06 -.745058059692D-08 -.156968577009D+01 -.186264514923D-07
     .968441318851D+00  .290687500000D+03 -.959201346861D+00 -.836963434315D-08
    -.334656796942D-09  .100000000000D+01  .178500000000D+04  .000000000000D+00
     .240000000000D+01  .000000000000D+00 -.931322574615D-08  .360000000000D+02
     .403206000000D+06  .400000000000D+01
31 14  3 27 18  0  0.0  .334009062499D-03  .227373675443D-12  .000000000000D+00
     .700000000000D+01  .154062500000D+02  .390301971929D-08  .128906395700D+01
     .810250639915D-06  .812396034598D-02  .126678496599D-04  .515380405998D+04
     .410400000000D+06  .169500708580D-06  .259737144123D+01  .149011611938D-07
     .978909722171D+00  .138875000000D+03 -.634463830297D+00 -.768282002029D-08
    -.347514475373D-09  .100000000000D+01  .178500000000D+04  .000000000000D+00
     .240000000000D+01  .000000000000D+00 -.130385160446D-07  .700000000000D+01
     .403206000000D+06  .400000000000D+01
32 14  3 27 18  0  0.0 -.461091753095D-03  .738964445191D-11  .000000000000D+00
     .610000000000D+02  .675000000000D+02  .512199906611D-08  .202250193712D+01
     .339746475220D-05  .114400021266D-01  .724196434021D-05  .515348109245D+04
     .410400000000D+06  .726431608200D-07  .558343806564D+00  .206753611565D-06
     .948247942310D+00  .230093750000D+03 -.167943413894D+00 -.842963684250D-08
     .452876006961D-09  .100000000000D+01  .178500000000D+04  .000000000000D+00
     .240000000000D+01  .000000000000D+00 -.325962901115D-08  .610000000000D+02
     .403206000000D+06  .400000000000D+01
30 14  3 27 19  0  0.0  .272924080491D-05 -.204636307899D-11  .000000000000D+00
     .470000000000D+02  .540625000000D+01  .441018370185D-08  .226725597887D+01
     .547617673874D-06  .427906517871D-03  .130813568830D-04  .515372542763D+04
     .414000000000D+06  .931322574615D-07  .264677664540D+01  .558793544769D-07
     .959507752126D+00  .126937500000D+03  .267531182221D+01 -.800676208521D-08
    -.201436962087D-09  .100000000000D+01  .178500000000D+04  .000000000000D+00
     .960000000000D+02  .630000000000D+02  .325962901115D-08  .303000000000D+03
     .403206000000D+06  .600000000000D+01
 5 14  3 27 17 59 44.0 -.382158905268D-03  .204636307899D-11  .000000000000D+00
     .000000000000D+00  .692812500000D+02  .502770942428D-08 -.132962659526D+01
     .347197055817D-05  .356699107215D-02  .766105949879D-05  .515356193733D+04
     .410384000000D+06  .149011611938D-07  .469554921041D+00  .558793544769D-08
     .947819013266D+00  .219468750000D+03  .339336574410D+00 -.840427864337D-08
     .597524889310D-09  .100000000000D+01  .178500000000D+04  .000000000000D+00
     .240000000000D+01  .000000000000D+00 -.102445483208D-07  .000000000000D+00
     .404856000000D+06  .400000000000D+01
25 14  3 27 17 59 44.0  .199880450964D-04  .125055521494D-11  .000000000000D+00
     .400000000000D+01  .825937500000D+02  .438339687179D-08  .239465496345D+00
     .434741377831D-05  .338838552125D-02  .597909092903D-05  .515363307571D+04
     .410384000000D+06  .614672899246D-07 -.267184149818D+01  .875443220139D-07
     .975948765738D+00  .268687500000D+03  .624845325327D+00 -.821391357104D-08
     .289654922433D-09  .100000000000D+01  .178500000000D+04  .000000000000D+00
     .240000000000D+01  .000000000000D+00  .558793544769D-08  .400000000000D+01
     .405336000000D+06  .400000000000D+01
10 14  3 27 17 59 44.0 -.119625590742D-03 -.136424205266D-11  .000000000000D+00
     .220000000000D+02  .686250000000D+02  .516342936327D-08 -.101301112526D+01
     .386685132980D-05  .134759960929D-01  .737793743610D-05  .515371788216D+04
     .410384000000D+06  .208616256714D-06  .487164725738D+00  .201165676117D-06
     .942610022805D+00  .226031250000D+03  .861150362712D+00 -.850321133574D-08
     .563594904561D-09  .100000000000D+01  .178500000000D+04  .000000000000D+00
     .240000000000D+01  .000000000000D+00 -.279396772385D-08  .220000000000D+02
     .407706000000D+06  .400000000000D+01
 5 14  3 27 19 59 44.0 -.382144469768D-03  .204636307899D-11  .000000000000D+00
     .100000000000D+01  .688125000000D+02  .493377694018D-08 -.279392563993D+00
     .376626849174D-05  .356652378105D-02  .810064375401D-05  .515356123352D+04
     .417584000000D+06  .186264514923D-07  .469494419138D+00 -.204890966415D-07
     .947823463463D+00  .214375000000D+03  .339354948661D+00 -.837820612877D-08
     .608239621336D-09  .100000000000D+01  .178500000000D+04  .000000000000D+00
     .240000000000D+01  .000000000000D+00 -.102445483208D-07  .100000000000D+01
     .410406000000D+06  .400000000000D+01
10 14  3 27 19 59 44.0 -.119635369629D-03 -.136424205266D-11  .000000000000D+00
     .230000000000D+02  .647500000000D+02  .521628870793D-08  .370961558552D-01
     .348873436451D-05  .134750135476D-01  .802800059319D-05  .515371557617D+04
     .417584000000D+06 -.186264514923D-07  .487102532701D+00  .160187482834D-06
     .942613443108D+00  .218218750000D+03  .861202916581D+00 -.866393231613D-08
     .567166481903D-09  .100000000000D+01  .178500000000D+04  .000000000000D+00
     .240000000000D+01  .000000000000D+00 -.279396772385D-08  .230000000000D+02
     .410406000000D+06  .400000000000D+01
